OBJECT_NAME,OBJECT_ID,EPOCH,MEAN_MOTION,ECCENTRICITY,INCLINATION,RA_OF_ASC_NODE,ARG_OF_PERICENTER,MEAN_ANOMALY,EPHEMERIS_TYPE,CLASSIFICATION_TYPE,NORAD_CAT_ID,ELEMENT_SET_NO,REV_AT_EPOCH,BSTAR,MEAN_MOTION_DOT,MEAN_MOTION_DDOT
BEIDOU-2 IGSO-5 (C10),2011-073A,2026-06-06T19:12:21.798720,1.00275467,.01135482,47.6984,271.6762,221.6933,141.6840,0,U,37948,999,5303,0,-.158E-5,0
LUCH 5A (SDCM/PRN 140),2011-074B,2026-06-06T14:15:51.287040,1.00269862,.00024028,8.7265,73.9638,12.4500,189.5697,0,U,37951,999,5294,0,-.37E-6,0
BEIDOU-2 G5 (C05),2012-008A,2026-06-07T11:59:43.189152,1.00270002,.000946,3.5490,69.7560,276.1347,148.6310,0,U,38091,999,5227,0,.72E-6,0
BEIDOU-2 M3 (C11),2012-018A,2026-06-06T10:47:18.921984,1.86230163,.0019926,55.7678,305.2371,274.9338,84.8288,0,U,38250,999,9574,0,-.54E-6,0
BEIDOU-2 M4 (C12),2012-018B,2026-06-06T22:03:01.549152,1.86229779,.0011112,55.6675,304.4358,277.6317,82.2331,0,U,38251,999,9575,0,-.54E-6,0
SES-5 (EGNOS/PRN 136),2012-036A,2026-06-07T06:36:22.508064,1.00273741,.0002155,0.0512,308.1088,128.3799,283.2716,0,U,38652,999,4435,0,.48E-6,0
BEIDOU-2 M6 (C14),2012-050B,2026-06-07T03:58:20.068320,1.86230975,.0013887,56.5356,63.2259,355.8219,4.1945,0,U,38775,999,9312,0,-.39E-6,0
GSAT-10 (GAGAN/PRN 128),2012-051B,2026-06-07T03:33:22.199040,1.00271795,.0008003,0.0171,262.4199,186.5141,302.9972,0,U,38779,999,4999,0,-.151E-5,0
GPS BIIF-3  (PRN 24),2012-053A,2026-06-07T08:16:39.168192,2.00567343,.0179751,53.5842,144.0025,65.6197,296.2414,0,U,38833,999,9924,0,.96E-6,0
GSAT0103 (GALILEO-FM3),2012-055A,2026-06-05T03:46:28.790688,1.70473498,.00051664,55.7989,101.8756,302.6849,57.2312,0,U,38857,999,8480,0,.18E-6,0
BEIDOU-2 G6 (C02),2012-059A,2026-06-06T20:57:21.665088,1.00275119,.0010388,4.3949,73.6308,324.3452,255.6355,0,U,38953,999,4980,0,-.162E-5,0
LUCH 5B (SDCM/PRN 125),2012-061A,2026-06-06T23:39:42.670656,1.00274188,.0001756,10.4589,49.9805,137.0640,46.9761,0,U,38977,999,4950,0,-.126E-5,0
COSMOS 2485 (747),2013-019A,2026-06-06T02:48:31.416192,2.13103501,.00234828,65.4139,73.9758,234.9271,124.8751,0,U,39155,999,10204,0,-.7E-7,0
GPS BIIF-4  (PRN 27),2013-023A,2026-06-05T05:12:52.058880,2.00563607,.01416227,54.5137,269.4614,50.9838,310.2894,0,U,39166,999,9564,0,-.27E-6,0
IRNSS-1A,2013-034A,2026-05-22T20:37:38.469792,1.00280263,.00166187,35.6649,64.2334,185.3754,355.4646,0,U,39199,999,4711,0,.59E-6,0
GPS BIIF-5  (PRN 30),2014-008A,2026-06-07T05:06:54.143424,2.00559182,.0084235,53.6531,149.7265,231.1118,128.1377,0,U,39533,999,8948,0,.98E-6,0
ASTRA 5B (EGNOS/PRN 123),2014-011B,2026-06-07T06:41:44.493216,1.00269678,.0002179,0.0579,316.5504,107.4906,315.5888,0,U,39617,999,4456,0,.151E-5,0
COSMOS 2492 (754),2014-012A,2026-06-07T00:20:47.349888,2.13103539,.0010535,65.3041,314.2816,326.6217,33.3091,0,U,39620,999,9502,0,-.28E-6,0
IRNSS-1B,2014-017A,2026-05-19T20:39:38.653920,1.00280229,.00242269,28.9733,240.8911,185.2284,176.5740,0,U,39635,999,4451,0,.103E-5,0
LUCH 5V (SDCM/PRN 141),2014-023A,2026-06-06T20:52:21.696384,1.00268252,.0002817,5.1075,69.8531,29.5559,203.6692,0,U,39727,999,4425,0,-.254E-5,0
GPS BIIF-6  (PRN 06),2014-026A,2026-06-06T23:45:32.692608,2.00561817,.0038258,56.5034,331.9145,326.7180,33.0491,0,U,39741,999,8833,0,-.59E-6,0
COSMOS 2500 (755),2014-032A,2026-06-05T07:22:31.262592,2.13106228,.00069216,65.2399,314.0875,182.6987,177.2913,0,U,40001,999,9320,0,-.32E-6,0
GPS BIIF-7  (PRN 09),2014-045A,2026-06-07T01:57:31.694112,2.00557768,.0032896,55.3469,88.8676,118.3875,241.9399,0,U,40105,999,8587,0,.8E-7,0
GSAT0201 (GALILEO 5),2014-050A,2026-06-02T20:44:38.047200,1.85520153,.16724063,48.8915,274.0236,178.8372,181.6513,0,U,40128,999,7805,0,-.5E-6,0
GSAT0202 (GALILEO 6),2014-050B,2026-06-05T19:33:21.866688,1.85520656,.16740733,48.9049,272.9882,179.6779,180.4916,0,U,40129,999,8027,0,-.47E-6,0
IRNSS-1C,2014-061A,2026-06-06T20:26:22.775136,1.00270962,.00226053,6.4923,89.1238,1.2769,194.4828,0,U,40269,999,4258,0,-.148E-5,0
GPS BIIF-8  (PRN 03),2014-068A,2026-06-06T10:53:28.523040,2.00575579,.0066799,56.9803,31.3683,70.1816,290.5925,0,U,40294,999,8499,0,-.67E-6,0
COSMOS 2501 (702K),2014-075A,2026-06-06T23:26:54.528864,2.13101447,.0022453,63.6156,190.7254,212.1024,147.8262,0,U,40315,999,8963,0,.84E-6,0
GPS BIIF-9  (PRN 26),2015-013A,2026-06-05T02:18:11.228256,2.00552074,.01093013,53.1687,204.6778,40.1042,320.7783,0,U,40534,999,8158,0,.46E-6,0
GSAT0203 (GALILEO 7),2015-017A,2026-06-05T11:32:53.568384,1.70476258,.00020943,56.7910,341.9146,282.9852,77.0035,0,U,40544,999,6900,0,-.68E-6,0
GSAT0204 (GALILEO 8),2015-017B,2026-06-05T03:36:30.892320,1.70475724,.0001822,56.7982,341.9422,253.1460,106.8459,0,U,40545,999,3204,0,-.69E-6,0
